[{"OBJECT_NAME":"STARLINK-1627","OBJECT_ID":"2020-057BD","EPOCH":"2026-03-10T00:00:02.999808","MEAN_MOTION":15.7182535,"ECCENTRICITY":0.00032384,"INCLINATION":53.043,"RA_OF_ASC_NODE":223.2369,"ARG_OF_PERICENTER":42.9244,"MEAN_ANOMALY":228.4026,"EPHEMERIS_TYPE":0,"CLASSIFICATION_TYPE":"U","NORAD_CAT_ID":46168,"ELEMENT_SET_NO":999,"REV_AT_EPOCH":596,"BSTAR":0.00036555083,"MEAN_MOTION_DOT":0.00048075,"MEAN_MOTION_DDOT":0},{"OBJECT_NAME":"STARLINK-11440 [DTC]","OBJECT_ID":"2025-004C","EPOCH":"2026-03-09T23:46:24.541248","MEAN_MOTION":15.70977345,"ECCENTRICITY":0.00017403,"INCLINATION":43.0006,"RA_OF_ASC_NODE":69.1124,"ARG_OF_PERICENTER":207.3453,"MEAN_ANOMALY":152.7324,"EPHEMERIS_TYPE":0,"CLASSIFICATION_TYPE":"U","NORAD_CAT_ID":62513,"ELEMENT_SET_NO":999,"REV_AT_EPOCH":6725,"BSTAR":0.0021370545,"MEAN_MOTION_DOT":0.00285017,"MEAN_MOTION_DDOT":0}]
